[{"OBJECT_NAME":"COSMOS 2251 DEB","OBJECT_ID":"1993-036BWF","EPOCH":"2026-02-28T12:20:45.545856","MEAN_MOTION":14.78520475,"ECCENTRICITY":0.00593111,"INCLINATION":74.0429,"RA_OF_ASC_NODE":0.3071,"ARG_OF_PERICENTER":78.683,"MEAN_ANOMALY":282.1002,"EPHEMERIS_TYPE":0,"CLASSIFICATION_TYPE":"U","NORAD_CAT_ID":40802,"ELEMENT_SET_NO":999,"REV_AT_EPOCH":65558,"BSTAR":0.00074156774,"MEAN_MOTION_DOT":5.549e-5,"MEAN_MOTION_DDOT":0},{"OBJECT_NAME":"COSMOS 2251 DEB","OBJECT_ID":"1993-036BWG","EPOCH":"2026-03-08T11:45:54.747936","MEAN_MOTION":14.52067225,"ECCENTRICITY":0.00318928,"INCLINATION":74.0108,"RA_OF_ASC_NODE":250.1464,"ARG_OF_PERICENTER":84.9919,"MEAN_ANOMALY":275.4882,"EPHEMERIS_TYPE":0,"CLASSIFICATION_TYPE":"U","NORAD_CAT_ID":40803,"ELEMENT_SET_NO":999,"REV_AT_EPOCH":59997,"BSTAR":0.00040578353,"MEAN_MOTION_DOT":1.624e-5,"MEAN_MOTION_DDOT":0},{"OBJECT_NAME":"COSMOS 2251 DEB","OBJECT_ID":"1993-036BWM","EPOCH":"2026-03-10T01:53:54.178656","MEAN_MOTION":14.69314029,"ECCENTRICITY":0.0007476,"INCLINATION":74.0431,"RA_OF_ASC_NODE":336.6245,"ARG_OF_PERICENTER":338.853,"MEAN_ANOMALY":84.7016,"EPHEMERIS_TYPE":0,"CLASSIFICATION_TYPE":"U","NORAD_CAT_ID":40808,"ELEMENT_SET_NO":999,"REV_AT_EPOCH":64901,"BSTAR":0.0015420974,"MEAN_MOTION_DOT":9.09e-5,"MEAN_MOTION_DDOT":0},{"OBJECT_NAME":"COSMOS 2251 DEB","OBJECT_ID":"1993-036BWP","EPOCH":"2026-03-09T22:56:12.677856","MEAN_MOTION":14.59377585,"ECCENTRICITY":0.0017458,"INCLINATION":74.0335,"RA_OF_ASC_NODE":268.5555,"ARG_OF_PERICENTER":32.3801,"MEAN_ANOMALY":327.8432,"EPHEMERIS_TYPE":0,"CLASSIFICATION_TYPE":"U","NORAD_CAT_ID":40810,"ELEMENT_SET_NO":999,"REV_AT_EPOCH":62955,"BSTAR":0.00070496,"MEAN_MOTION_DOT":3.316e-5,"MEAN_MOTION_DDOT":0},{"OBJECT_NAME":"COSMOS 2251 DEB","OBJECT_ID":"1993-036BWT","EPOCH":"2026-03-06T21:57:33.141024","MEAN_MOTION":14.51660289,"ECCENTRICITY":0.00395323,"INCLINATION":74.0446,"RA_OF_ASC_NODE":279.8533,"ARG_OF_PERICENTER":17.1967,"MEAN_ANOMALY":343.0523,"EPHEMERIS_TYPE":0,"CLASSIFICATION_TYPE":"U","NORAD_CAT_ID":46271,"ELEMENT_SET_NO":999,"REV_AT_EPOCH":85863,"BSTAR":0.00026572511,"MEAN_MOTION_DOT":1.048e-5,"MEAN_MOTION_DDOT":0},{"OBJECT_NAME":"COSMOS 2251 DEB","OBJECT_ID":"1993-036BWU","EPOCH":"2026-02-27T18:42:40.944384","MEAN_MOTION":14.52668,"ECCENTRICITY":0.0096282,"INCLINATION":73.9115,"RA_OF_ASC_NODE":210.0861,"ARG_OF_PERICENTER":112.8258,"MEAN_ANOMALY":248.3108,"EPHEMERIS_TYPE":0,"CLASSIFICATION_TYPE":"U","NORAD_CAT_ID":46430,"ELEMENT_SET_NO":999,"REV_AT_EPOCH":80801,"BSTAR":0.0022944,"MEAN_MOTION_DOT":9.977e-5,"MEAN_MOTION_DDOT":0},{"OBJECT_NAME":"COSMOS 2251 DEB","OBJECT_ID":"1993-036BWW","EPOCH":"2026-03-10T01:47:51.328896","MEAN_MOTION":13.36775511,"ECCENTRICITY":0.04720187,"INCLINATION":73.8741,"RA_OF_ASC_NODE":333.6733,"ARG_OF_PERICENTER":76.3904,"MEAN_ANOMALY":348.4162,"EPHEMERIS_TYPE":0,"CLASSIFICATION_TYPE":"U","NORAD_CAT_ID":46432,"ELEMENT_SET_NO":999,"REV_AT_EPOCH":68133,"BSTAR":0.0012823056,"MEAN_MOTION_DOT":1.243e-5,"MEAN_MOTION_DDOT":0},{"OBJECT_NAME":"COSMOS 2251 DEB","OBJECT_ID":"1993-036BXC","EPOCH":"2026-03-04T23:23:15.377856","MEAN_MOTION":14.53273661,"ECCENTRICITY":0.0134876,"INCLINATION":73.9819,"RA_OF_ASC_NODE":163.468,"ARG_OF_PERICENTER":330.2926,"MEAN_ANOMALY":148.2271,"EPHEMERIS_TYPE":0,"CLASSIFICATION_TYPE":"U","NORAD_CAT_ID":47048,"ELEMENT_SET_NO":999,"REV_AT_EPOCH":60884,"BSTAR":0.0013408,"MEAN_MOTION_DOT":6.249e-5,"MEAN_MOTION_DDOT":0},{"OBJECT_NAME":"COSMOS 2251 DEB","OBJECT_ID":"1993-036BXF","EPOCH":"2026-02-26T06:00:17.828640","MEAN_MOTION":13.67442496,"ECCENTRICITY":0.0340476,"INCLINATION":74.0972,"RA_OF_ASC_NODE":60.1411,"ARG_OF_PERICENTER":156.9473,"MEAN_ANOMALY":223.2083,"EPHEMERIS_TYPE":0,"CLASSIFICATION_TYPE":"U","NORAD_CAT_ID":47051,"ELEMENT_SET_NO":999,"REV_AT_EPOCH":60970,"BSTAR":0.00084654,"MEAN_MOTION_DOT":1.045e-5,"MEAN_MOTION_DDOT":0},{"OBJECT_NAME":"COSMOS 2251 DEB","OBJECT_ID":"1993-036BXG","EPOCH":"2026-03-07T18:36:05.138208","MEAN_MOTION":14.3565507,"ECCENTRICITY":0.00601001,"INCLINATION":74.0478,"RA_OF_ASC_NODE":184.4395,"ARG_OF_PERICENTER":239.4852,"MEAN_ANOMALY":275.0963,"EPHEMERIS_TYPE":0,"CLASSIFICATION_TYPE":"U","NORAD_CAT_ID":47052,"ELEMENT_SET_NO":999,"REV_AT_EPOCH":63009,"BSTAR":0.00045130696,"MEAN_MOTION_DOT":1.303e-5,"MEAN_MOTION_DDOT":0},{"OBJECT_NAME":"COSMOS 2251 DEB","OBJECT_ID":"1993-036BXH","EPOCH":"2026-02-09T01:53:10.207968","MEAN_MOTION":13.59837713,"ECCENTRICITY":0.03811045,"INCLINATION":74.0576,"RA_OF_ASC_NODE":159.6243,"ARG_OF_PERICENTER":320.0647,"MEAN_ANOMALY":225.2715,"EPHEMERIS_TYPE":0,"CLASSIFICATION_TYPE":"U","NORAD_CAT_ID":47053,"ELEMENT_SET_NO":999,"REV_AT_EPOCH":29681,"BSTAR":0.0012257384,"MEAN_MOTION_DOT":1.45e-5,"MEAN_MOTION_DDOT":0},{"OBJECT_NAME":"COSMOS 2251 DEB","OBJECT_ID":"1993-036BXP","EPOCH":"2026-03-04T07:23:49.847712","MEAN_MOTION":15.24789556,"ECCENTRICITY":0.0019083,"INCLINATION":73.9759,"RA_OF_ASC_NODE":64.3004,"ARG_OF_PERICENTER":239.4537,"MEAN_ANOMALY":120.4779,"EPHEMERIS_TYPE":0,"CLASSIFICATION_TYPE":"U","NORAD_CAT_ID":47059,"ELEMENT_SET_NO":999,"REV_AT_EPOCH":9543,"BSTAR":0.0048704,"MEAN_MOTION_DOT":0.00123422,"MEAN_MOTION_DDOT":0},{"OBJECT_NAME":"COSMOS 2251 DEB","OBJECT_ID":"1993-036BXS","EPOCH":"2026-03-05T10:32:54.754368","MEAN_MOTION":13.72200584,"ECCENTRICITY":0.0322895,"INCLINATION":74.0821,"RA_OF_ASC_NODE":301.7772,"ARG_OF_PERICENTER":48.2079,"MEAN_ANOMALY":129.1317,"EPHEMERIS_TYPE":0,"CLASSIFICATION_TYPE":"U","NORAD_CAT_ID":47062,"ELEMENT_SET_NO":999,"REV_AT_EPOCH":56736,"BSTAR":0.002142,"MEAN_MOTION_DOT":2.813e-5,"MEAN_MOTION_DDOT":0},{"OBJECT_NAME":"COSMOS 2251 DEB","OBJECT_ID":"1993-036BXY","EPOCH":"2026-03-08T07:38:32.958528","MEAN_MOTION":14.53938899,"ECCENTRICITY":0.00153314,"INCLINATION":74.0253,"RA_OF_ASC_NODE":41.7299,"ARG_OF_PERICENTER":116.6577,"MEAN_ANOMALY":243.6157,"EPHEMERIS_TYPE":0,"CLASSIFICATION_TYPE":"U","NORAD_CAT_ID":47068,"ELEMENT_SET_NO":999,"REV_AT_EPOCH":63000,"BSTAR":0.0014835738,"MEAN_MOTION_DOT":6.233e-5,"MEAN_MOTION_DDOT":0},{"OBJECT_NAME":"COSMOS 2251 DEB","OBJECT_ID":"1993-036BXZ","EPOCH":"2026-02-23T02:01:24.114432","MEAN_MOTION":14.84285904,"ECCENTRICITY":0.00071366,"INCLINATION":74.0146,"RA_OF_ASC_NODE":329.5947,"ARG_OF_PERICENTER":272.2683,"MEAN_ANOMALY":87.7678,"EPHEMERIS_TYPE":0,"CLASSIFICATION_TYPE":"U","NORAD_CAT_ID":47069,"ELEMENT_SET_NO":999,"REV_AT_EPOCH":73569,"BSTAR":0.0026112493,"MEAN_MOTION_DOT":0.0002194,"MEAN_MOTION_DDOT":0},{"OBJECT_NAME":"COSMOS 2251 DEB","OBJECT_ID":"1993-036BYD","EPOCH":"2026-02-22T19:17:49.360992","MEAN_MOTION":14.0488758,"ECCENTRICITY":0.01587081,"INCLINATION":74.0811,"RA_OF_ASC_NODE":76.4519,"ARG_OF_PERICENTER":97.3808,"MEAN_ANOMALY":264.5395,"EPHEMERIS_TYPE":0,"CLASSIFICATION_TYPE":"U","NORAD_CAT_ID":47073,"ELEMENT_SET_NO":999,"REV_AT_EPOCH":61373,"BSTAR":0.00043661801,"MEAN_MOTION_DOT":7.63e-6,"MEAN_MOTION_DDOT":0},{"OBJECT_NAME":"COSMOS 2251 DEB","OBJECT_ID":"1993-036BYE","EPOCH":"2026-02-15T02:32:45.254976","MEAN_MOTION":14.36309703,"ECCENTRICITY":0.01410908,"INCLINATION":74.0917,"RA_OF_ASC_NODE":190.9144,"ARG_OF_PERICENTER":203.8881,"MEAN_ANOMALY":274.7362,"EPHEMERIS_TYPE":0,"CLASSIFICATION_TYPE":"U","NORAD_CAT_ID":47074,"ELEMENT_SET_NO":999,"REV_AT_EPOCH":3606,"BSTAR":0.0024264324,"MEAN_MOTION_DOT":7.93e-5,"MEAN_MOTION_DDOT":0},{"OBJECT_NAME":"COSMOS 2251 DEB","OBJECT_ID":"1993-036BYJ","EPOCH":"2026-02-27T08:25:05.077344","MEAN_MOTION":15.02778291,"ECCENTRICITY":0.0017194,"INCLINATION":74.0208,"RA_OF_ASC_NODE":84.7822,"ARG_OF_PERICENTER":181.9976,"MEAN_ANOMALY":194.0424,"EPHEMERIS_TYPE":0,"CLASSIFICATION_TYPE":"U","NORAD_CAT_ID":47116,"ELEMENT_SET_NO":999,"REV_AT_EPOCH":60660,"BSTAR":0.0017596726,"MEAN_MOTION_DOT":0.00023658,"MEAN_MOTION_DDOT":0},{"OBJECT_NAME":"COSMOS 2251 DEB","OBJECT_ID":"1993-036BYP","EPOCH":"2026-03-10T07:33:17.215776","MEAN_MOTION":14.42412363,"ECCENTRICITY":0.0020733,"INCLINATION":74.0356,"RA_OF_ASC_NODE":139.0738,"ARG_OF_PERICENTER":207.6562,"MEAN_ANOMALY":152.3493,"EPHEMERIS_TYPE":0,"CLASSIFICATION_TYPE":"U","NORAD_CAT_ID":53093,"ELEMENT_SET_NO":999,"REV_AT_EPOCH":18988,"BSTAR":0.0007210779,"MEAN_MOTION_DOT":2.366e-5,"MEAN_MOTION_DDOT":0}]
